{
  "norad_id": 61946,
  "name": "STARLINK-11410 [DTC]",
  "history": [
    {
      "epoch": "2026-03-28T21:36:55.269216Z",
      "apogee_km": 360.2256504381585,
      "perigee_km": 359.00746459495986,
      "latitude_deg": -9.676539100761389e-06,
      "longitude_deg": 126.12505747769781,
      "height_km": 360.29199486109513,
      "semi_major_axis_km": 6737.753557516559,
      "eccentricity": 9.04e-05,
      "inclination_deg": 53.1569,
      "raan_deg": 276.6698,
      "arg_perigee_deg": 66.9727,
      "mean_anomaly_deg": 293.1386,
      "mean_motion_rev_day": 15.69748508
    },
    {
      "epoch": "2026-03-29T23:35:32.429472Z",
      "apogee_km": 360.1264118261997,
      "perigee_km": 358.87240293805826,
      "latitude_deg": -4.7966311012675894e-05,
      "longitude_deg": 90.0661579816809,
      "height_km": 360.5820850413537,
      "semi_major_axis_km": 6737.636407382129,
      "eccentricity": 9.306e-05,
      "inclination_deg": 53.1567,
      "raan_deg": 271.3326,
      "arg_perigee_deg": 105.6437,
      "mean_anomaly_deg": 254.4683,
      "mean_motion_rev_day": 15.69789449
    },
    {
      "epoch": "2026-03-30T22:30:48.338208Z",
      "apogee_km": 360.402768375965,
      "perigee_km": 358.63130437672044,
      "latitude_deg": -4.983456830352165e-05,
      "longitude_deg": 100.59993573917625,
      "height_km": 361.2656009403038,
      "semi_major_axis_km": 6737.654036376342,
      "eccentricity": 0.00013146,
      "inclination_deg": 53.1567,
      "raan_deg": 266.624,
      "arg_perigee_deg": 160.3963,
      "mean_anomaly_deg": 199.7105,
      "mean_motion_rev_day": 15.69783288
    },
    {
      "epoch": "2026-03-31T18:22:42.235104Z",
      "apogee_km": 359.81603861260555,
      "perigee_km": 358.51573915505105,
      "latitude_deg": -3.940975856896684e-06,
      "longitude_deg": 157.73017529515792,
      "height_km": 360.71768988184357,
      "semi_major_axis_km": 6737.302888883828,
      "eccentricity": 9.65e-05,
      "inclination_deg": 53.1574,
      "raan_deg": 262.5446,
      "arg_perigee_deg": 168.5439,
      "mean_anomaly_deg": 191.5601,
      "mean_motion_rev_day": 15.69906015
    },
    {
      "epoch": "2026-04-01T17:17:57.685920Z",
      "apogee_km": 361.411155052645,
      "perigee_km": 357.8441824370111,
      "latitude_deg": -5.4689906324551535e-06,
      "longitude_deg": 168.26606665486344,
      "height_km": 361.01982042306,
      "semi_major_axis_km": 6737.764668744828,
      "eccentricity": 0.0002647,
      "inclination_deg": 53.1567,
      "raan_deg": 257.8362,
      "arg_perigee_deg": 105.6442,
      "mean_anomaly_deg": 254.4868,
      "mean_motion_rev_day": 15.69744625
    },
    {
      "epoch": "2026-04-02T17:44:53.334816Z",
      "apogee_km": 359.6343134186991,
      "perigee_km": 358.8915824484384,
      "latitude_deg": -2.1243727133164582e-05,
      "longitude_deg": 155.5088091797171,
      "height_km": 360.5390504721294,
      "semi_major_axis_km": 6737.399947933568,
      "eccentricity": 5.512e-05,
      "inclination_deg": 53.1574,
      "raan_deg": 252.8149,
      "arg_perigee_deg": 193.4903,
      "mean_anomaly_deg": 166.61,
      "mean_motion_rev_day": 15.69872091
    },
    {
      "epoch": "2026-04-03T19:43:32.340576Z",
      "apogee_km": 360.55200734779737,
      "perigee_km": 359.08717558481385,
      "latitude_deg": -5.216245852208841e-05,
      "longitude_deg": 119.44340418298569,
      "height_km": 360.6120909371382,
      "semi_major_axis_km": 6737.956591466305,
      "eccentricity": 0.0001087,
      "inclination_deg": 53.1579,
      "raan_deg": 247.4789,
      "arg_perigee_deg": 80.4936,
      "mean_anomaly_deg": 279.6204,
      "mean_motion_rev_day": 15.69677557
    },
    {
      "epoch": "2026-04-04T20:10:28.322112Z",
      "apogee_km": 360.38994287547393,
      "perigee_km": 358.84295468363416,
      "latitude_deg": -2.3812384809116312e-05,
      "longitude_deg": 106.68628811462364,
      "height_km": 360.49931814360656,
      "semi_major_axis_km": 6737.753448779554,
      "eccentricity": 0.0001148,
      "inclination_deg": 53.1575,
      "raan_deg": 242.4591,
      "arg_perigee_deg": 87.7423,
      "mean_anomaly_deg": 272.3726,
      "mean_motion_rev_day": 15.69748546
    },
    {
      "epoch": "2026-04-05T14:30:41.223456Z",
      "apogee_km": 360.43884992444964,
      "perigee_km": 358.84738626055696,
      "latitude_deg": -9.003739638289056e-07,
      "longitude_deg": -172.88982207293571,
      "height_km": 360.26969994962246,
      "semi_major_axis_km": 6737.7801180925035,
      "eccentricity": 0.0001181,
      "inclination_deg": 53.1578,
      "raan_deg": 238.6898,
      "arg_perigee_deg": 68.8699,
      "mean_anomaly_deg": 291.2445,
      "mean_motion_rev_day": 15.69739226
    },
    {
      "epoch": "2026-04-05T16:02:22.178400Z",
      "apogee_km": 360.62457554640605,
      "perigee_km": 358.57077926203874,
      "latitude_deg": 1.4574648286703884e-05,
      "longitude_deg": 163.81398924495653,
      "height_km": 360.36982326375505,
      "semi_major_axis_km": 6737.734677404222,
      "eccentricity": 0.00015241,
      "inclination_deg": 53.1573,
      "raan_deg": 238.377,
      "arg_perigee_deg": 82.1264,
      "mean_anomaly_deg": 277.9927,
      "mean_motion_rev_day": 15.69755106
    },
    {
      "epoch": "2026-04-07T13:52:52.496832Z",
      "apogee_km": 360.6299449948838,
      "perigee_km": 358.9063888531846,
      "latitude_deg": 4.738699798540432e-05,
      "longitude_deg": -175.11047186484942,
      "height_km": 359.98744417612403,
      "semi_major_axis_km": 6737.905166924033,
      "eccentricity": 0.0001279,
      "inclination_deg": 53.1572,
      "raan_deg": 228.9615,
      "arg_perigee_deg": 36.3002,
      "mean_anomaly_deg": 323.8103,
      "mean_motion_rev_day": 15.69695527
    },
    {
      "epoch": "2026-04-07T13:52:52.497696Z",
      "apogee_km": 360.6299449948838,
      "perigee_km": 358.9063888531846,
      "latitude_deg": 4.7386997984009976e-05,
      "longitude_deg": -175.1104754747065,
      "height_km": 359.98744417612403,
      "semi_major_axis_km": 6737.905166924033,
      "eccentricity": 0.0001279,
      "inclination_deg": 53.1572,
      "raan_deg": 228.9615,
      "arg_perigee_deg": 36.3002,
      "mean_anomaly_deg": 323.8103,
      "mean_motion_rev_day": 15.69695527
    },
    {
      "epoch": "2026-04-08T14:19:49.020096Z",
      "apogee_km": 360.6170484541235,
      "perigee_km": 358.7497289116045,
      "latitude_deg": 1.8792859700821476e-05,
      "longitude_deg": 172.12840399346916,
      "height_km": 359.84516851193047,
      "semi_major_axis_km": 6737.820388682863,
      "eccentricity": 0.00013857,
      "inclination_deg": 53.1569,
      "raan_deg": 223.94,
      "arg_perigee_deg": 36.3555,
      "mean_anomaly_deg": 323.7557,
      "mean_motion_rev_day": 15.69725153
    },
    {
      "epoch": "2026-04-09T14:46:45.354144Z",
      "apogee_km": 360.1466355568555,
      "perigee_km": 359.20468934664495,
      "latitude_deg": -2.663072438957757e-05,
      "longitude_deg": 159.36765791600345,
      "height_km": 360.49624948570005,
      "semi_major_axis_km": 6737.81266245175,
      "eccentricity": 6.99e-05,
      "inclination_deg": 53.1574,
      "raan_deg": 218.9181,
      "arg_perigee_deg": 78.5684,
      "mean_anomaly_deg": 281.5412,
      "mean_motion_rev_day": 15.69727853
    },
    {
      "epoch": "2026-04-10T07:35:16.512576Z",
      "apogee_km": 359.5758209191454,
      "perigee_km": 358.8387554540177,
      "latitude_deg": -2.0069621334582497e-06,
      "longitude_deg": -96.90385934663185,
      "height_km": 360.26016864866307,
      "semi_major_axis_km": 6737.344288186581,
      "eccentricity": 5.47e-05,
      "inclination_deg": 53.1573,
      "raan_deg": 215.4667,
      "arg_perigee_deg": 112.1041,
      "mean_anomaly_deg": 248.0035,
      "mean_motion_rev_day": 15.69891545
    },
    {
      "epoch": "2026-04-11T17:12:19.556064Z",
      "apogee_km": 360.4702655229612,
      "perigee_km": 358.6443503655082,
      "latitude_deg": -1.647801294010001e-05,
      "longitude_deg": 110.54692376174688,
      "height_km": 360.6482826453979,
      "semi_major_axis_km": 6737.694307944234,
      "eccentricity": 0.0001355,
      "inclination_deg": 53.1573,
      "raan_deg": 208.5608,
      "arg_perigee_deg": 101.2367,
      "mean_anomaly_deg": 258.8803,
      "mean_motion_rev_day": 15.69769214
    },
    {
      "epoch": "2026-04-12T16:07:35.180544Z",
      "apogee_km": 360.78137627637716,
      "perigee_km": 358.66609227745903,
      "latitude_deg": -1.9927696123688126e-05,
      "longitude_deg": 121.08138610803896,
      "height_km": 361.10510139186766,
      "semi_major_axis_km": 6737.860734276918,
      "eccentricity": 0.00015697,
      "inclination_deg": 53.1579,
      "raan_deg": 203.8517,
      "arg_perigee_deg": 116.2851,
      "mean_anomaly_deg": 243.8328,
      "mean_motion_rev_day": 15.69711054
    },
    {
      "epoch": "2026-04-14T12:26:24.857664Z",
      "apogee_km": 360.4526848867199,
      "perigee_km": 358.9025832520065,
      "latitude_deg": -2.242294647570101e-05,
      "longitude_deg": 165.45339438736298,
      "height_km": 360.37293207844294,
      "semi_major_axis_km": 6737.814634069363,
      "eccentricity": 0.00011503,
      "inclination_deg": 53.1579,
      "raan_deg": 194.7506,
      "arg_perigee_deg": 73.6531,
      "mean_anomaly_deg": 286.4613,
      "mean_motion_rev_day": 15.69727164
    },
    {
      "epoch": "2026-04-15T11:21:40.153824Z",
      "apogee_km": 360.4590064214217,
      "perigee_km": 358.81889699925705,
      "latitude_deg": -1.8352098098942953e-05,
      "longitude_deg": 175.99083653940235,
      "height_km": 360.52332268178026,
      "semi_major_axis_km": 6737.7759517103395,
      "eccentricity": 0.00012171,
      "inclination_deg": 53.1576,
      "raan_deg": 190.0431,
      "arg_perigee_deg": 87.9816,
      "mean_anomaly_deg": 272.1341,
      "mean_motion_rev_day": 15.69740682
    }
  ]
}